APRIZESAT 9             
1 40018U 14033J   26066.32464630  .00001571  00000+0  23805-3 0  9996
2 40018  97.8876 202.1193 0066671 166.7458 193.5522 14.74068214628551
BRITE-CA1 (TORONTO)     
1 40020U 14033L   26066.31857132  .00001989  00000+0  30711-3 0  9998
2 40020  97.9561 197.2354 0077800 242.6001 116.7276 14.72456016627228
DUCHIFAT-1              
1 40021U 14033M   26066.56898411  .00076511  00000+0  13790-2 0  9991
2 40021  98.0631 112.7467 0006387  90.3519 269.8462 15.49495114639946
NANOSATC-BR1            
1 40024U 14033Q   26066.62529315  .00025626  00000+0  93800-3 0  9997
2 40024  98.0843  90.2239 0004484 154.6166 205.5293 15.28023225638450
QB50P1                  
1 40025U 14033R   26066.53257418  .00014036  00000+0  72370-3 0  9992
2 40025  98.1011  70.6697 0008058 201.8424 158.2465 15.16462692637616
DTUSAT-2                
1 40030U 14033W   26065.94873201  .00009497  00000+0  53448-3 0  9996
2 40030  98.0847  57.3179 0006823 212.0753 148.0062 15.13469198637213
QB50P2                  
1 40032U 14033Y   26066.61403729  .00012180  00000+0  68093-3 0  9992
2 40032  98.0735  57.3036 0008483 148.2967 211.8775 15.13621313637291
PERSEUS-M1              
1 40039U 14033AF  26066.59953310  .00003307  00000+0  30578-3 0  9990
2 40039  97.9560   9.1518 0009926 276.5250  83.4840 14.95243255635451
POLYITAN-1              
1 40042U 14033AJ  26066.58080905  .00029223  00000+0  10226-2 0  9996
2 40042  98.1050  83.4768 0009264 133.9045 226.2960 15.29439289638047
TIGRISAT                
1 40043U 14033AK  26066.36597304  .00003858  00000+0  45148-3 0  9997
2 40043  97.7670 218.8238 0050507  49.8365 310.7256 14.84714144630510
AISAT                   
1 40054U 14034B   26066.62807075  .00017271  00000+0  11665-2 0  9998
2 40054  98.2442 331.7791 0008796 196.0827 164.0120 15.06636033631904
CANX-4                  
1 40055U 14034C   26066.61663581  .00001654  00000+0  22040-3 0  9998
2 40055  98.3279 298.1247 0012477 343.3324  16.7475 14.81056190629495
CANX-5                  
1 40056U 14034D   26066.61623213  .00001655  00000+0  22039-3 0  9996
2 40056  98.3280 298.1620 0012477 343.4704  16.6099 14.81072890620303
VELOX-I                 
1 40057U 14034E   26066.61982225  .00008180  00000+0  71876-3 0  9991
2 40057  98.2639 325.9003 0005862 246.4088 113.6517 14.96836298631404
GONETS-M 10             
1 40063U 14036C   26066.56825824  .00000109  00000+0  71773-3 0  9994
2 40063  82.5163  10.7856 0022377   6.6505 353.4868 12.42942549529623
METEOR-M 2              
1 40069U 14037A   26066.64201241  .00000126  00000+0  76792-4 0  9997
2 40069  98.5027  46.0292 0005464 343.9032  16.1971 14.21427221604896
DX1                     
1 40071U 14037C   26066.60927488  .00002347  00000+0  25219-3 0  9998
2 40071  98.3764  22.2446 0005913 238.1524 121.9116 14.89608654630982
