[{"OBJECT_NAME":"APRIZESAT 9","OBJECT_ID":"2014-033J","EPOCH":"2026-03-07T07:47:29.440320","MEAN_MOTION":14.74068214,"ECCENTRICITY":0.0066671,"INCLINATION":97.8876,"RA_OF_ASC_NODE":202.1193,"ARG_OF_PERICENTER":166.7458,"MEAN_ANOMALY":193.5522,"EPHEMERIS_TYPE":0,"CLASSIFICATION_TYPE":"U","NORAD_CAT_ID":40018,"ELEMENT_SET_NO":999,"REV_AT_EPOCH":62855,"BSTAR":0.00023805,"MEAN_MOTION_DOT":1.571e-5,"MEAN_MOTION_DDOT":0},{"OBJECT_NAME":"BRITE-CA1 (TORONTO)","OBJECT_ID":"2014-033L","EPOCH":"2026-03-07T07:38:44.562048","MEAN_MOTION":14.72456016,"ECCENTRICITY":0.00778,"INCLINATION":97.9561,"RA_OF_ASC_NODE":197.2354,"ARG_OF_PERICENTER":242.6001,"MEAN_ANOMALY":116.7276,"EPHEMERIS_TYPE":0,"CLASSIFICATION_TYPE":"U","NORAD_CAT_ID":40020,"ELEMENT_SET_NO":999,"REV_AT_EPOCH":62722,"BSTAR":0.00030711,"MEAN_MOTION_DOT":1.989e-5,"MEAN_MOTION_DDOT":0},{"OBJECT_NAME":"DUCHIFAT-1","OBJECT_ID":"2014-033M","EPOCH":"2026-03-07T13:39:20.227104","MEAN_MOTION":15.49495114,"ECCENTRICITY":0.00063873,"INCLINATION":98.0631,"RA_OF_ASC_NODE":112.7467,"ARG_OF_PERICENTER":90.3519,"MEAN_ANOMALY":269.8462,"EPHEMERIS_TYPE":0,"CLASSIFICATION_TYPE":"U","NORAD_CAT_ID":40021,"ELEMENT_SET_NO":999,"REV_AT_EPOCH":63994,"BSTAR":0.0013789737,"MEAN_MOTION_DOT":0.00076511,"MEAN_MOTION_DDOT":0},{"OBJECT_NAME":"NANOSATC-BR1","OBJECT_ID":"2014-033Q","EPOCH":"2026-03-07T15:00:25.328160","MEAN_MOTION":15.28023225,"ECCENTRICITY":0.00044849,"INCLINATION":98.0843,"RA_OF_ASC_NODE":90.2239,"ARG_OF_PERICENTER":154.6166,"MEAN_ANOMALY":205.5293,"EPHEMERIS_TYPE":0,"CLASSIFICATION_TYPE":"U","NORAD_CAT_ID":40024,"ELEMENT_SET_NO":999,"REV_AT_EPOCH":63845,"BSTAR":0.00093800416,"MEAN_MOTION_DOT":0.00025626,"MEAN_MOTION_DDOT":0},{"OBJECT_NAME":"QB50P1","OBJECT_ID":"2014-033R","EPOCH":"2026-03-07T12:46:54.409152","MEAN_MOTION":15.16462692,"ECCENTRICITY":0.00080586,"INCLINATION":98.1011,"RA_OF_ASC_NODE":70.6697,"ARG_OF_PERICENTER":201.8424,"MEAN_ANOMALY":158.2465,"EPHEMERIS_TYPE":0,"CLASSIFICATION_TYPE":"U","NORAD_CAT_ID":40025,"ELEMENT_SET_NO":999,"REV_AT_EPOCH":63761,"BSTAR":0.00072370035,"MEAN_MOTION_DOT":0.00014036,"MEAN_MOTION_DDOT":0},{"OBJECT_NAME":"DTUSAT-2","OBJECT_ID":"2014-033W","EPOCH":"2026-03-06T22:46:10.445664","MEAN_MOTION":15.13469198,"ECCENTRICITY":0.00068231,"INCLINATION":98.0847,"RA_OF_ASC_NODE":57.3179,"ARG_OF_PERICENTER":212.0753,"MEAN_ANOMALY":148.0062,"EPHEMERIS_TYPE":0,"CLASSIFICATION_TYPE":"U","NORAD_CAT_ID":40030,"ELEMENT_SET_NO":999,"REV_AT_EPOCH":63721,"BSTAR":0.0005344825,"MEAN_MOTION_DOT":9.497e-5,"MEAN_MOTION_DDOT":0},{"OBJECT_NAME":"QB50P2","OBJECT_ID":"2014-033Y","EPOCH":"2026-03-07T14:44:12.821856","MEAN_MOTION":15.13621313,"ECCENTRICITY":0.00084835,"INCLINATION":98.0735,"RA_OF_ASC_NODE":57.3036,"ARG_OF_PERICENTER":148.2967,"MEAN_ANOMALY":211.8775,"EPHEMERIS_TYPE":0,"CLASSIFICATION_TYPE":"U","NORAD_CAT_ID":40032,"ELEMENT_SET_NO":999,"REV_AT_EPOCH":63729,"BSTAR":0.00068093429,"MEAN_MOTION_DOT":0.0001218,"MEAN_MOTION_DDOT":0},{"OBJECT_NAME":"PERSEUS-M1","OBJECT_ID":"2014-033AF","EPOCH":"2026-03-07T14:23:19.659840","MEAN_MOTION":14.95243255,"ECCENTRICITY":0.0009926,"INCLINATION":97.956,"RA_OF_ASC_NODE":9.1518,"ARG_OF_PERICENTER":276.525,"MEAN_ANOMALY":83.484,"EPHEMERIS_TYPE":0,"CLASSIFICATION_TYPE":"U","NORAD_CAT_ID":40039,"ELEMENT_SET_NO":999,"REV_AT_EPOCH":63545,"BSTAR":0.00030578319,"MEAN_MOTION_DOT":3.307e-5,"MEAN_MOTION_DDOT":0},{"OBJECT_NAME":"POLYITAN-1","OBJECT_ID":"2014-033AJ","EPOCH":"2026-03-07T13:56:21.901920","MEAN_MOTION":15.29439289,"ECCENTRICITY":0.00092645,"INCLINATION":98.105,"RA_OF_ASC_NODE":83.4768,"ARG_OF_PERICENTER":133.9045,"MEAN_ANOMALY":226.296,"EPHEMERIS_TYPE":0,"CLASSIFICATION_TYPE":"U","NORAD_CAT_ID":40042,"ELEMENT_SET_NO":999,"REV_AT_EPOCH":63804,"BSTAR":0.0010225779,"MEAN_MOTION_DOT":0.00029223,"MEAN_MOTION_DDOT":0},{"OBJECT_NAME":"TIGRISAT","OBJECT_ID":"2014-033AK","EPOCH":"2026-03-07T08:47:00.070656","MEAN_MOTION":14.84714144,"ECCENTRICITY":0.00505071,"INCLINATION":97.767,"RA_OF_ASC_NODE":218.8238,"ARG_OF_PERICENTER":49.8365,"MEAN_ANOMALY":310.7256,"EPHEMERIS_TYPE":0,"CLASSIFICATION_TYPE":"U","NORAD_CAT_ID":40043,"ELEMENT_SET_NO":999,"REV_AT_EPOCH":63051,"BSTAR":0.00045147506,"MEAN_MOTION_DOT":3.858e-5,"MEAN_MOTION_DDOT":0},{"OBJECT_NAME":"AISAT","OBJECT_ID":"2014-034B","EPOCH":"2026-03-07T15:04:25.312800","MEAN_MOTION":15.06636033,"ECCENTRICITY":0.00087962,"INCLINATION":98.2442,"RA_OF_ASC_NODE":331.7791,"ARG_OF_PERICENTER":196.0827,"MEAN_ANOMALY":164.012,"EPHEMERIS_TYPE":0,"CLASSIFICATION_TYPE":"U","NORAD_CAT_ID":40054,"ELEMENT_SET_NO":999,"REV_AT_EPOCH":63190,"BSTAR":0.0011664841,"MEAN_MOTION_DOT":0.00017271,"MEAN_MOTION_DDOT":0},{"OBJECT_NAME":"CANX-4","OBJECT_ID":"2014-034C","EPOCH":"2026-03-07T14:47:57.333984","MEAN_MOTION":14.8105619,"ECCENTRICITY":0.00124778,"INCLINATION":98.3279,"RA_OF_ASC_NODE":298.1247,"ARG_OF_PERICENTER":343.3324,"MEAN_ANOMALY":16.7475,"EPHEMERIS_TYPE":0,"CLASSIFICATION_TYPE":"U","NORAD_CAT_ID":40055,"ELEMENT_SET_NO":999,"REV_AT_EPOCH":62949,"BSTAR":0.00022040014,"MEAN_MOTION_DOT":1.654e-5,"MEAN_MOTION_DDOT":0},{"OBJECT_NAME":"CANX-5","OBJECT_ID":"2014-034D","EPOCH":"2026-03-07T14:47:22.456032","MEAN_MOTION":14.8107289,"ECCENTRICITY":0.00124777,"INCLINATION":98.328,"RA_OF_ASC_NODE":298.162,"ARG_OF_PERICENTER":343.4704,"MEAN_ANOMALY":16.6099,"EPHEMERIS_TYPE":0,"CLASSIFICATION_TYPE":"U","NORAD_CAT_ID":40056,"ELEMENT_SET_NO":999,"REV_AT_EPOCH":62030,"BSTAR":0.0002203943,"MEAN_MOTION_DOT":1.655e-5,"MEAN_MOTION_DDOT":0},{"OBJECT_NAME":"VELOX-I","OBJECT_ID":"2014-034E","EPOCH":"2026-03-07T14:52:32.642400","MEAN_MOTION":14.96836298,"ECCENTRICITY":0.00058626,"INCLINATION":98.2639,"RA_OF_ASC_NODE":325.9003,"ARG_OF_PERICENTER":246.4088,"MEAN_ANOMALY":113.6517,"EPHEMERIS_TYPE":0,"CLASSIFICATION_TYPE":"U","NORAD_CAT_ID":40057,"ELEMENT_SET_NO":999,"REV_AT_EPOCH":63140,"BSTAR":0.00071876137,"MEAN_MOTION_DOT":8.18e-5,"MEAN_MOTION_DDOT":0},{"OBJECT_NAME":"GONETS-M 10","OBJECT_ID":"2014-036C","EPOCH":"2026-03-07T13:38:17.511936","MEAN_MOTION":12.42942549,"ECCENTRICITY":0.00223773,"INCLINATION":82.5163,"RA_OF_ASC_NODE":10.7856,"ARG_OF_PERICENTER":6.6505,"MEAN_ANOMALY":353.4868,"EPHEMERIS_TYPE":0,"CLASSIFICATION_TYPE":"U","NORAD_CAT_ID":40063,"ELEMENT_SET_NO":999,"REV_AT_EPOCH":52962,"BSTAR":0.00071772743,"MEAN_MOTION_DOT":1.09e-6,"MEAN_MOTION_DDOT":0},{"OBJECT_NAME":"METEOR-M 2","OBJECT_ID":"2014-037A","EPOCH":"2026-03-07T15:24:29.872224","MEAN_MOTION":14.21427221,"ECCENTRICITY":0.00054646,"INCLINATION":98.5027,"RA_OF_ASC_NODE":46.0292,"ARG_OF_PERICENTER":343.9032,"MEAN_ANOMALY":16.1971,"EPHEMERIS_TYPE":0,"CLASSIFICATION_TYPE":"U","NORAD_CAT_ID":40069,"ELEMENT_SET_NO":999,"REV_AT_EPOCH":60489,"BSTAR":7.6792125e-5,"MEAN_MOTION_DOT":1.26e-6,"MEAN_MOTION_DDOT":0},{"OBJECT_NAME":"DX1","OBJECT_ID":"2014-037C","EPOCH":"2026-03-07T14:37:21.349632","MEAN_MOTION":14.89608654,"ECCENTRICITY":0.00059131,"INCLINATION":98.3764,"RA_OF_ASC_NODE":22.2446,"ARG_OF_PERICENTER":238.1524,"MEAN_ANOMALY":121.9116,"EPHEMERIS_TYPE":0,"CLASSIFICATION_TYPE":"U","NORAD_CAT_ID":40071,"ELEMENT_SET_NO":999,"REV_AT_EPOCH":63098,"BSTAR":0.00025218913,"MEAN_MOTION_DOT":2.347e-5,"MEAN_MOTION_DDOT":0}]
